{
  "type": "FeatureCollection",
  "features": [
    {
      "type": "Feature",
      "properties": {
        "norad_id": 38724,
        "name": "FENGYUN 1C DEB",
        "group": "fengyun-1c-debris",
        "lat": 32.95133705554871,
        "lon": 179.62546438899366,
        "alt_km": 807.4018969467079,
        "timestamp": "2025-12-10T21:43:22.377894+00:00",
        "meta_object_name": "FENGYUN 1C DEB",
        "meta_object_id": "1999-025ETR",
        "meta_epoch": "2025-11-13T12:10:01.066656",
        "meta_mean_motion": 14.14277973,
        "meta_eccentricity": 0.012547,
        "meta_inclination": 98.7406,
        "meta_ra_of_asc_node": 327.0705,
        "meta_arg_of_pericenter": 154.7752,
        "meta_mean_anomaly": 205.962,
        "meta_ephemeris_type": 0,
        "meta_classification_type": "U",
        "meta_norad_cat_id": 38724,
        "meta_element_set_no": 999,
        "meta_rev_at_epoch": 56211,
        "meta_bstar": 0.0084973,
        "meta_mean_motion_dot": 0.00017498,
        "meta_mean_motion_ddot": 0,
        "tle_line1": "1 38724U 99025ETR 25317.50695679  .00017498  00000+0  84973-2 0  9995",
        "tle_line2": "2 38724  98.7406 327.0705 0125470 154.7752 205.9620 14.14277973562118"
      },
      "geometry": {
        "type": "Point",
        "coordinates": [
          179.62546438899366,
          32.95133705554871
        ]
      }
    },
    {
      "type": "Feature",
      "properties": {
        "norad_id": 38725,
        "name": "FENGYUN 1C DEB",
        "group": "fengyun-1c-debris",
        "lat": -80.13966507698584,
        "lon": -133.90962586218444,
        "alt_km": 731.9712831116249,
        "timestamp": "2025-12-10T21:43:22.377904+00:00",
        "meta_object_name": "FENGYUN 1C DEB",
        "meta_object_id": "1999-025ETS",
        "meta_epoch": "2025-12-10T13:50:08.556288",
        "meta_mean_motion": 14.42766759,
        "meta_eccentricity": 0.00346988,
        "meta_inclination": 98.871,
        "meta_ra_of_asc_node": 109.715,
        "meta_arg_of_pericenter": 263.0773,
        "meta_mean_anomaly": 96.6468,
        "meta_ephemeris_type": 0,
        "meta_classification_type": "U",
        "meta_norad_cat_id": 38725,
        "meta_element_set_no": 999,
        "meta_rev_at_epoch": 73321,
        "meta_bstar": 0.0046037445,
        "meta_mean_motion_dot": 0.0001544,
        "meta_mean_motion_ddot": 0,
        "tle_line1": "1 38725U 99025ETS 25344.57648792  .00015440  00000+0  46037-2 0  9991",
        "tle_line2": "2 38725  98.8710 109.7150 0034698 263.0773  96.6468 14.42766759733217"
      },
      "geometry": {
        "type": "Point",
        "coordinates": [
          -133.90962586218444,
          -80.13966507698584
        ]
      }
    },
    {
      "type": "Feature",
      "properties": {
        "norad_id": 38726,
        "name": "FENGYUN 1C DEB",
        "group": "fengyun-1c-debris",
        "lat": -16.918336758955583,
        "lon": -174.16570738149375,
        "alt_km": 557.0895089035002,
        "timestamp": "2025-12-10T21:43:22.377914+00:00",
        "meta_object_name": "FENGYUN 1C DEB",
        "meta_object_id": "1999-025ETT",
        "meta_epoch": "2025-12-10T08:03:54.289728",
        "meta_mean_motion": 15.02512823,
        "meta_eccentricity": 0.0023561,
        "meta_inclination": 99.137,
        "meta_ra_of_asc_node": 7.9704,
        "meta_arg_of_pericenter": 132.3277,
        "meta_mean_anomaly": 227.9944,
        "meta_ephemeris_type": 0,
        "meta_classification_type": "U",
        "meta_norad_cat_id": 38726,
        "meta_element_set_no": 999,
        "meta_rev_at_epoch": 69819,
        "meta_bstar": 0.0093647,
        "meta_mean_motion_dot": 0.00127229,
        "meta_mean_motion_ddot": 0,
        "tle_line1": "1 38726U 99025ETT 25344.33604502  .00127229  00000+0  93647-2 0  9995",
        "tle_line2": "2 38726  99.1370   7.9704 0023561 132.3277 227.9944 15.02512823698195"
      },
      "geometry": {
        "type": "Point",
        "coordinates": [
          -174.16570738149375,
          -16.918336758955583
        ]
      }
    },
    {
      "type": "Feature",
      "properties": {
        "norad_id": 38728,
        "name": "FENGYUN 1C DEB",
        "group": "fengyun-1c-debris",
        "lat": -32.71495959428774,
        "lon": -21.98561428351032,
        "alt_km": 667.8984910542422,
        "timestamp": "2025-12-10T21:43:22.377928+00:00",
        "meta_object_name": "FENGYUN 1C DEB",
        "meta_object_id": "1999-025ETV",
        "meta_epoch": "2025-12-06T05:29:30.081696",
        "meta_mean_motion": 14.70418681,
        "meta_eccentricity": 0.0075523,
        "meta_inclination": 99.2588,
        "meta_ra_of_asc_node": 326.6948,
        "meta_arg_of_pericenter": 74.331,
        "meta_mean_anomaly": 352.8104,
        "meta_ephemeris_type": 0,
        "meta_classification_type": "U",
        "meta_norad_cat_id": 38728,
        "meta_element_set_no": 999,
        "meta_rev_at_epoch": 65515,
        "meta_bstar": 0.0019460135,
        "meta_mean_motion_dot": 0.00012268,
        "meta_mean_motion_ddot": 0,
        "tle_line1": "1 38728U 99025ETV 25340.22882039  .00012268  00000+0  19460-2 0  9991",
        "tle_line2": "2 38728  99.2588 326.6948 0075523  74.3310 352.8104 14.70418681655154"
      },
      "geometry": {
        "type": "Point",
        "coordinates": [
          -21.98561428351032,
          -32.71495959428774
        ]
      }
    },
    {
      "type": "Feature",
      "properties": {
        "norad_id": 38789,
        "name": "FENGYUN 1C DEB",
        "group": "fengyun-1c-debris",
        "lat": 73.76719264517926,
        "lon": -161.4777880111688,
        "alt_km": 627.2701634703253,
        "timestamp": "2025-12-10T21:43:22.377938+00:00",
        "meta_object_name": "FENGYUN 1C DEB",
        "meta_object_id": "1999-025EUD",
        "meta_epoch": "2025-12-09T22:24:51.255648",
        "meta_mean_motion": 14.45777362,
        "meta_eccentricity": 0.02079599,
        "meta_inclination": 98.8559,
        "meta_ra_of_asc_node": 229.8858,
        "meta_arg_of_pericenter": 33.6569,
        "meta_mean_anomaly": 29.055,
        "meta_ephemeris_type": 0,
        "meta_classification_type": "U",
        "meta_norad_cat_id": 38789,
        "meta_element_set_no": 999,
        "meta_rev_at_epoch": 61805,
        "meta_bstar": 0.00090846035,
        "meta_mean_motion_dot": 4.156e-05,
        "meta_mean_motion_ddot": 0,
        "tle_line1": "1 38789U 99025EUD 25343.93392657  .00004156  00000+0  90846-3 0  9996",
        "tle_line2": "2 38789  98.8559 229.8858 0207959  33.6569  29.0550 14.45777362618054"
      },
      "geometry": {
        "type": "Point",
        "coordinates": [
          -161.4777880111688,
          73.76719264517926
        ]
      }
    },
    {
      "type": "Feature",
      "properties": {
        "norad_id": 38795,
        "name": "FENGYUN 1C DEB",
        "group": "fengyun-1c-debris",
        "lat": -65.35468456357684,
        "lon": 168.63745372715675,
        "alt_km": 785.8353747591536,
        "timestamp": "2025-12-10T21:43:22.377948+00:00",
        "meta_object_name": "FENGYUN 1C DEB",
        "meta_object_id": "1999-025EUK",
        "meta_epoch": "2025-12-09T08:20:16.870272",
        "meta_mean_motion": 13.29873446,
        "meta_eccentricity": 0.05024228,
        "meta_inclination": 98.6999,
        "meta_ra_of_asc_node": 6.8116,
        "meta_arg_of_pericenter": 264.2547,
        "meta_mean_anomaly": 90.1112,
        "meta_ephemeris_type": 0,
        "meta_classification_type": "U",
        "meta_norad_cat_id": 38795,
        "meta_element_set_no": 999,
        "meta_rev_at_epoch": 78467,
        "meta_bstar": 0.005100856,
        "meta_mean_motion_dot": 4.746e-05,
        "meta_mean_motion_ddot": 0,
        "tle_line1": "1 38795U 99025EUK 25343.34741748  .00004746  00000+0  51009-2 0  9999",
        "tle_line2": "2 38795  98.6999   6.8116 0502422 264.2547  90.1112 13.29873446784674"
      },
      "geometry": {
        "type": "Point",
        "coordinates": [
          168.63745372715675,
          -65.35468456357684
        ]
      }
    },
    {
      "type": "Feature",
      "properties": {
        "norad_id": 38797,
        "name": "FENGYUN 1C DEB",
        "group": "fengyun-1c-debris",
        "lat": -32.54378385062107,
        "lon": 51.6831426236302,
        "alt_km": 858.8023260019509,
        "timestamp": "2025-12-10T21:43:22.377958+00:00",
        "meta_object_name": "FENGYUN 1C DEB",
        "meta_object_id": "1999-025EUM",
        "meta_epoch": "2025-12-08T10:28:09.847776",
        "meta_mean_motion": 13.61607637,
        "meta_eccentricity": 0.0245005,
        "meta_inclination": 99.4848,
        "meta_ra_of_asc_node": 235.4069,
        "meta_arg_of_pericenter": 232.356,
        "meta_mean_anomaly": 125.5125,
        "meta_ephemeris_type": 0,
        "meta_classification_type": "U",
        "meta_norad_cat_id": 38797,
        "meta_element_set_no": 999,
        "meta_rev_at_epoch": 59224,
        "meta_bstar": 0.000515849,
        "meta_mean_motion_dot": 4.38e-06,
        "meta_mean_motion_ddot": 0,
        "tle_line1": "1 38797U 99025EUM 25342.43622509  .00000438  00000+0  51585-3 0  9997",
        "tle_line2": "2 38797  99.4848 235.4069 0245005 232.3560 125.5125 13.61607637592247"
      },
      "geometry": {
        "type": "Point",
        "coordinates": [
          51.6831426236302,
          -32.54378385062107
        ]
      }
    }
  ]
}